X,Y,fid,BAC,BARef,PDC,PrimDesc,UARN,Add1,St,Postcode,Field16,RV,SCAT,SCATnocode,Sector,Sub-sector,SCat_Desc,Easting,Northing,LAName,Rural_Urban_Classification_(2011)_of_Lower_Layer_Super_Output_Areas_in_England_and_Wales_RUC11CD,Rural_Urban_Classification_(2011)_of_Lower_Layer_Super_Output_Areas_in_England_and_Wales_RUC11,icon_url
-0.944119001516845,51.4485030046657,"1","345",100590513803B,MP,POLICE STATION AND PREMISES,"536737000",CEMETERY ARCH,LONDON ROAD,RG1 5AZ,,"7800",215S,"215",Other,OTHER - OFFICES,Police Stations,"473472","172697",Reading,C1,Urban city and town,./0.png
-0.969101331381067,51.4152394817755,"2","345","1009501300102",MP,POLICE STATION AND PREMISES,"31853000","270",WHITLEY WOOD ROAD,RG2 8FT,,"62500",215S,"215",Other,OTHER - OFFICES,Police Stations,"471788","168973",Reading,C1,Urban city and town,./0.png
-0.976643097333544,51.4529365871568,"3","345",100990001702B,MP,POLICE STATION AND PREMISES,"490025165",THAMES VALLEY POLICE E DIVISION,CASTLE STREET,RG1 7TH,,"465000",215S,"215",Other,OTHER - OFFICES,Police Stations,"471205","173158",Reading,C1,Urban city and town,./0.png
-1.03680975267073,51.4573036632211,"4","345","1009900022512",MP,POLICE STATION AND PREMISES,"490024165",AT,CORWEN ROAD,RG30 4TA,,"2950",215S,"215",Other,OTHER - OFFICES,Police Stations,"467018","173587",Reading,C1,Urban city and town,./0.png
-0.949493435194992,51.4525976172044,"5","345","1009900043114",MP,POLICE STATION AND PREMISES,"490022165",AT CEMETARY JUNCTION,LONDON ROAD,RG1 5BA,,"1500",215S,"215",Other,OTHER - OFFICES,Police Stations,"473092","173147",Reading,C1,Urban city and town,./0.png
-2.59101417455207,51.49479806429,"6","116","00016187320156",MP,POLICE STATION AND PREMISES,"12649381000",SOUTHMEAD POLICE STATION WESTGATE HOUSE,SOUTHMEAD ROAD,BS10 5NB,31/7/2019 00:00:00,"3350",215S,"215",Other,OTHER - OFFICES,Police Stations,"359067","177483",Bristol,C1,Urban city and town,./0.png
-2.57639829026643,51.4586436723774,"7","116","00014269058012",MP,POLICE STATION AND PREMISES,"337228212",AVON & SOMERSET POLICE DEPT,TRINITY ROAD,BS2 0NW,,"141000",215S,"215",Other,OTHER - OFFICES,Police Stations,"360050","173454",Bristol,C1,Urban city and town,./0.png
-2.59008419848733,51.4250007100429,"8","116","00015293001021",MP,POLICE STATION AND PREMISES,"337232212",AVON & SOMERSET POLICE DEPT,BROADBURY ROAD,BS4 1JT,,"75500",215S,"215",Other,OTHER - OFFICES,Police Stations,"359069","169720",Bristol,C1,Urban city and town,./0.png
-2.69374151431645,51.4990727018205,"9","116","00014881001012",MP,BUILDING UNDERGOING REFURBISHMENT,"338837212",AVONMOUTH POLICE STATION,AVONMOUTH ROAD,BS11 9LP,1/4/2017 00:00:00,"0",215S,"215",Other,OTHER - OFFICES,Police Stations,"351940","178021",Bristol,C1,Urban city and town,./0.png
-2.59354399955161,51.4566788448927,"10","116","00016399001334",MP,POLICE STATION AND PREMISES,"8194465000",ONE,BRIDEWELL STREET,BS1 2QD,,"545000",215S,"215",Other,OTHER - OFFICES,Police Stations,"358857","173245",Bristol,C1,Urban city and town,./0.png
-0.474448317383301,52.1378025614882,"11","235","1013805",MP,POLICE STATION AND PREMISES,"277657011","32",GREYFRIARS,MK40 1JD,,"172000",215S,"215",Other,OTHER - OFFICES,Police Stations,"504505","249931",Bedford,C1,Urban city and town,./0.png
-0.497135245399288,52.1171352221767,"12","235","1170532",MPO,POLICE STATION," OFFICE AND PREMISES,1744996000",217-223,BEDFORD ROAD,MK42 8PZ,,"107000",215S,"215",Other,OTHER - OFFICES,Police Stations,"503000","247600",Bedford,C1,Urban city and town,./0.png
-0.480694480721168,52.2513248795728,"13","235","1039516",MP,POLICE STATION AND PREMISES,"62208011","37",HIGH STREET,MK44 1DX,,"8100",215S,"215",Other,OTHER - OFFICES,Police Stations,"503813","262548",Bedford,E1,Rural village and dispersed,./1.png
-0.422082232451135,51.8775288002662,"14","230","201012010001013",MP,POLICE STATION AND PREMISES,"277760011",POLICE STATION,BUXTON ROAD,LU1 1RE,,"365000",215S,"215",Other,OTHER - OFFICES,Police Stations,"508717","221061",Luton,C1,Urban city and town,./0.png
-0.416158904758326,51.8803085752596,"15","230","201068780119013",MP,POLICE ROOMS,"7794634000",POLICE ROOMS,THE MALL,LU1 2TN,,"6600",215S,"215",Other,OTHER - OFFICES,Police Stations,"509118","221379",Luton,C1,Urban city and town,./0.png
-0.454464505986439,51.9186187386821,"16","230","201068800200008",MP,POLICE STATION AND PREMISES,"8189853000",LUTON NORTH LOCAL POLICE STATION,THE MOAKES,LU3 3QB,,"13000",215S,"215",Other,OTHER - OFFICES,Police Stations,"506391","225583",Luton,C1,Urban city and town,./0.png
-0.790782186877116,51.3702029849702,"17","335","00334000004008",MP,POLICE STATION AND PREMISES,"490032165",POLICE OFFICE 4-6,UPPER BROADMOOR ROAD,RG45 7AA,,"14750",215S,"215",Other,OTHER - OFFICES,Police Stations,"484271","164154",Bracknell Forest,C1,Urban city and town,./0.png
-0.748479347394609,51.4179474932449,"18","335","00211400020308",MP,POLICE STATION AND PREMISES,"490030165",POLICE STATION,TOWN SQUARE,RG12 1AT,,"83000",215S,"215",Other,OTHER - OFFICES,Police Stations,"487125","169513",Bracknell Forest,C1,Urban city and town,./0.png
-0.292015312797384,52.1293131784972,"19","240",42050/000131,MP,POLICE STATION AND PREMISES,"277655011","17",BEDFORD ROAD,SG19 1EL,,"22000",215S,"215",Other,OTHER - OFFICES,Police Stations,"517012","249265",Central Bedfordshire,C1,Urban city and town,./0.png
-0.261990746986611,52.0850317054914,"20","240",06854/003005,MP,POLICE STATION AND PREMISES,"277660011",5-7,STATION ROAD,SG18 8AL,,"37000",215S,"215",Other,OTHER - OFFICES,Police Stations,"519185","244389",Central Bedfordshire,C1,Urban city and town,./0.png
-0.527799085933486,51.8842399769148,"21","240",7EE228570010,MP,POLICE STATION AND PREMISES,"277664011",BEDFORDSHIRE POLICE AUTHORITY,WEST STREET,LU6 1SG,,"165000",215S,"215",Other,OTHER - OFFICES,Police Stations,"501425","221655",Central Bedfordshire,C1,Urban city and town,./0.png
-0.513845135709189,51.9103918925821,"22","240",7KW415007910,MP,POLICE STATION AND PREMISES,"277661011",ADJ 79,SUNDON ROAD,LU5 5LN,,"14000",215S,"215",Other,OTHER - OFFICES,Police Stations,"502326","224583",Central Bedfordshire,C1,Urban city and town,./0.png
-2.3708983098744,51.3795746022282,"23","114","2550554450",MP,POLICE STATION AND PREMISES,"11606519000",AVON & SOMERSET CONSTABULARY PT 2ND FLR,LOWER BRISTOL ROAD,BA2 3BG,1/4/2017 00:00:00,"23750",215G,"215",Other,OTHER - OFFICES,Police Stations,"374283","164568",Bath and North East Somerset,C1,Urban city and town,./0.png
-2.3567100642136,51.3787195134766,"24","114","2670516004",MP,POLICE STATION AND PREMISES,"9736098000",AVON & SOMERSET CONSTABULARY,MANVERS STREET,BA1 1JW,,"62000",215S,"215",Other,OTHER - OFFICES,Police Stations,"375270","164468",Bath and North East Somerset,C1,Urban city and town,./0.png
-2.47800845719651,51.4134267606756,"25","114","70006006999",MP,POLICE CUSTODY CENTRE AND PREMISES,"9389223000",ASHMEAD ROAD POLICE CENTRE,ASHMEAD ROAD,BS31 1SX,,"910000",215S,"215",Other,OTHER - OFFICES,Police Stations,"366853","168376",Bath and North East Somerset,C1,Urban city and town,./0.png
-2.49322985965941,51.4128691224153,"26","114","70017999905",MP,POLICE STATION AND PREMISES,"215960211",AVON AND SOMERSET CONSTABULARY,BATH HILL,BS31 1HJ,,"47250",215S,"215",Other,OTHER - OFFICES,Police Stations,"365794","168321",Bath and North East Somerset,C1,Urban city and town,./0.png
-2.45668564541909,51.2894076115203,"27","114","62720101004",MP,POLICE STATION AND PREMISES,"215956211",AVON AND SOMERSET CONSTABULARY,WELLS ROAD,BA3 3SG,,"37000",215S,"215",Other,OTHER - OFFICES,Police Stations,"368250","154574",Bath and North East Somerset,C1,Urban city and town,./0.png
-2.44102786798232,51.3882692437047,"28","114","39215001028",MP,POLICE STATION AND PREMISES,"217235211",AVON & SOMERSET CONSTABULARY 1,GOOLD CLOSE,BA2 9AF,,"5900",215S,"215",Other,OTHER - OFFICES,Police Stations,"369408","165562",Bath and North East Somerset,E1,Rural village and dispersed,./1.png
-2.3708983098744,51.3795746022282,"29","114",2550 5544 60,MP,POLICE STATION AND PREMISES,"4748775000",3RD FLOOR REDBRIDGE HOUSE,LOWER BRISTOL ROAD,BA2 3BG,1/4/2017 00:00:00,"21250",215G,"215",Other,OTHER - OFFICES,Police Stations,"374283","164568",Bath and North East Somerset,C1,Urban city and town,./0.png
-2.79477725349577,51.4695770612602,"30","121","01300331176700",MX,TACTICAL TRAINING CENTRE AND PREMISES,"9907828000",BLACK ROCK SPECIALIST TRAINING CENTRE,VALLEY ROAD,BS20 8JY,,"385000",215S,"215",Other,OTHER - OFFICES,Police Stations,"344891","174812",North Somerset,E1,Rural village and dispersed,./1.png
-2.95736931226696,51.3363969478652,"31","121","01300420910189",MP,POLICE MAINTENANCE DEPOT,"349012212",MOTOR PATROL & MAINTENANCE CENTRE,STUART ROAD,BS23 3XN,,"61500",215S,"215",Other,OTHER - OFFICES,Police Stations,"333404","160136",North Somerset,C1,Urban city and town,./0.png
-2.50624774541356,51.4809521171947,"32","119",210295601N,MP,POLICE STATION AND PREMISES,"9511825000",THE OLD COURT HOUSE,BROAD STREET,BS16 5NX,,"16750",215S,"215",Other,OTHER - OFFICES,Police Stations,"364941","175899",South Gloucestershire,C1,Urban city and town,./0.png
-2.57066321011293,51.5273044250162,"33","119",980470900N,MP,POLICE CUSTODY CENTRE AND PREMISES,"9389209000",PATCHWAY POLICE CENTRE 90,GLOUCESTER ROAD,BS34 6PY,,"920000",215S,"215",Other,OTHER - OFFICES,Police Stations,"360508","181087",South Gloucestershire,C1,Urban city and town,./0.png
-2.57100165004013,51.5485856720823,"34","119",129960150N,MP,POLICE STATION AND PREMISES,"218560211",AVON & SOMERSET CONSTABULARY THE MOTORWAY POLICE STATION,GLOUCESTER ROAD,BS32 4AG,,"57500",215S,"215",Other,OTHER - OFFICES,Police Stations,"360503","183454",South Gloucestershire,C1,Urban city and town,./0.png
-2.39509526176641,51.5379090354881,"35","119",390320320N,MP,POLICE STATION AND PREMISES,"215934211",AVON AND SOMERSET CONSTABULARY,HIGH STREET,BS37 6AH,,"30750",215S,"215",Other,OTHER - OFFICES,Police Stations,"372694","182186",South Gloucestershire,C1,Urban city and town,./0.png
-2.59583469871839,51.5253269765411,"36","119",123008020N,MP,POLICE STATION AND PREMISES,"6886960000","802",THE MALL AT CRIBBS CAUSEWAY,BS34 5DG,,"5300",215S,"215",Other,OTHER - OFFICES,Police Stations,"358760","180881",South Gloucestershire,E1,Rural village and dispersed,./1.png
-0.715180266108888,51.8972515980121,"37","405",1347543PT73707,MP,POLICE STATION AND PREMISES,"487585000",THAMES VALLEY POLICE PT GND FLR 73,LEIGHTON ROAD,LU7 0NN,,"4950",215S,"215",Other,OTHER - OFFICES,Police Stations,"488503","222858",Aylesbury Vale,D1,Rural town and fringe,./2.png
-0.920443807406315,51.846048942088,"38","405","0386846631957",MP,POLICE STATION AND PREMISES,"2535512000",POLICE STATION,HIGH STREET,HP18 0JB,,"13750",215S,"215",Other,OTHER - OFFICES,Police Stations,"474464","216934",Aylesbury Vale,D1,Rural town and fringe,./2.png
0.128716021158977,52.203755085946,"39","505","00009980070008",MP,POLICE STATION AND PREMISES,"392202012",CAMBS CONSTABULARY,PARKSIDE,CB1 1JE,,"665000",215S,"215",Other,OTHER - OFFICES,Police Stations,"545566","258305",Cambridge,C1,Urban city and town,./0.png
-0.547625889066952,51.4952117590725,"40","350","00800300015201",MP,POLICE STATION AND PREMISES,"490012165",POLICE STATION,HIGH STREET,SL3 8NF,,"31750",215S,"215",Other,OTHER - OFFICES,Police Stations,"500921","178363",Slough,C1,Urban city and town,./0.png
-0.595306873054759,51.5088579438774,"41","350","00800300014105",MP,POLICE STATION AND PREMISES,"490010165",POLICE STATION,WINDSOR ROAD,SL1 2DJ,,"184000",215S,"215",Other,OTHER - OFFICES,Police Stations,"497582","179816",Slough,C1,Urban city and town,./0.png
-1.08264162602867,51.4836663009826,"42","340",NN04104200069113,MP,POLICE STATION AND PREMISES,"490268165",AT,READING ROAD,RG8 7HY,,"32500",215S,"215",Other,OTHER - OFFICES,Police Stations,"463797","176478",West Berkshire,D1,Rural town and fringe,./2.png
-1.08423103256033,51.4359233693438,"43","340",NN05301600032141,MP,POLICE STATION AND PREMISES,"490264165",THEALE POLICE STATION,CHURCH STREET,RG7 5BZ,,"4300",215S,"215",Other,OTHER - OFFICES,Police Stations,"463753","171167",West Berkshire,C1,Urban city and town,./0.png
-1.3180549840439,51.4008928769041,"44","340",NN03905860018223,MP,POLICE STATION AND PREMISES,"490263165",POLICE HQ,MILL LANE,RG14 5QS,,"101000",215S,"215",Other,OTHER - OFFICES,Police Stations,"447536","167094",West Berkshire,C1,Urban city and town,./0.png
-1.51216634730127,51.4140808251744,"45","340",NN03304600100123,MP,BUILDING UNDERGOING REDEVELOPMENT,"490262165",POLICE STATION,PARK STREET,RG17 0EA,2/2/2018 00:00:00,"0",215S,"215",Other,OTHER - OFFICES,Police Stations,"434023","168453",West Berkshire,D1,Rural town and fringe,./2.png
-1.08264162602867,51.4836663009826,"46","340",NN0410420006901A,MP,POLICE STATION AND PREMISES,"490260165",67A,READING ROAD,RG8 7HY,,"30750",215S,"215",Other,OTHER - OFFICES,Police Stations,"463797","176478",West Berkshire,D1,Rural town and fringe,./2.png
-1.55476861674925,51.4928907862464,"47","340",NN08104950061132,MP,POLICE STATION AND PREMISES,"490257165",POLICE MOTORWAY POST,MEMBURY AIRFIELD,RG17 7RS,,"3800",215S,"215",Other,OTHER - OFFICES,Police Stations,"431007","177199",West Berkshire,D1,Rural town and fringe,./2.png
-0.505542026465713,51.5200229431462,"48","410","309580001780",MP,POLICE STATION AND PREMISES,"571925162",THE POLICE STATION,HIGH STREET,SL0 9ND,,"12500",215S,"215",Other,OTHER - OFFICES,Police Stations,"503786","181181",South Bucks,D1,Rural town and fringe,./2.png
-0.602239495767391,51.6762625586658,"49","415",30368605000T,MP,POLICE STATION AND PREMISES,"571919162",THAMES VALLEY POLICE DIVISIONAL HEADQUARTERS,CHILTERN AVENUE,HP6 5AH,,"154000",215S,"215",Other,OTHER - OFFICES,Police Stations,"496745","198424",Chiltern,C1,Urban city and town,./0.png
-0.610103359977282,51.7089870224526,"50","415",74081800510T,MP,POLICE STATION AND PREMISES,"571920162",THAMES VALLEY POLICE AUTHORITY,BROAD STREET,HP5 3EA,,"12750",215S,"215",Other,OTHER - OFFICES,Police Stations,"496132","202053",Chiltern,C1,Urban city and town,./0.png
-0.92367004506692,51.4276896529812,"51","360","00424000003108",MP,POLICE STATION AND PREMISES,"322609000",LODDON VALLEY POLICE STATION,RUSHEY WAY,RG6 4PS,,"495000",215S,"215",Other,OTHER - OFFICES,Police Stations,"474927","170403",Wokingham,C1,Urban city and town,./0.png
-0.862366627040251,51.4762877249194,"52","360",01645000001A07,MP,POLICE STATION AND PREMISES,"490021165",AT,STATION ROAD,RG10 9NG,,"5700",215S,"215",Other,OTHER - OFFICES,Police Stations,"479105","175872",Wokingham,D1,Rural town and fringe,./2.png
-0.671679313911996,51.4101694754464,"53","355","2890250084005",MP,POLICE STATION AND PREMISES,"490009165",ASCOT POLICE STATION,HIGH STREET,SL5 7HE,,"35250",215S,"215",Other,OTHER - OFFICES,Police Stations,"492481","168742",Windsor and Maidenhead,C1,Urban city and town,./0.png
-0.616540555415707,51.476711886925,"54","355","2255610126009",MP,POLICE STATION AND PREMISES,"490008165",POLICE STATION,ALMA ROAD,SL4 3EZ,,"236000",215S,"215",Other,OTHER - OFFICES,Police Stations,"496176","176213",Windsor and Maidenhead,C1,Urban city and town,./0.png
-0.704424033347053,51.523385902908,"55","355","1004500173002",MP,POLICE STATION AND PREMISES,"490007165",POLICE STATION,BRIDGE ROAD,SL6 8DG,,"198000",215S,"215",Other,OTHER - OFFICES,Police Stations,"489981","181292",Windsor and Maidenhead,C1,Urban city and town,./0.png
-0.606415212453258,51.4838755977959,"56","355","1227228017101",MP,POLICE STATION AND PREMISES,"4223501000",GARDEN HOUSE OFFICES,ROYAL MEWS,SL4 1NJ,,"53500",215S,"215",Other,OTHER - OFFICES,Police Stations,"496864","177023",Windsor and Maidenhead,C1,Urban city and town,./0.png
-0.576670462360548,51.4830957628911,"57","355","1237459000802",MP,POLICE STATION AND PREMISES,"4085997000","8",HORTON ROAD,SL3 9ER,,"1050",215S,"215",Other,OTHER - OFFICES,Police Stations,"498931","176976",Windsor and Maidenhead,D1,Rural town and fringe,./2.png
0.068525883510857,52.5449242896769,"58","515",60070POLI00,MP,POLICE STATION AND PREMISES,"449922012",POLICE STATION,BURROWMOOR ROAD,PE15 0YX,,"68000",215S,"215",Other,OTHER - OFFICES,Police Stations,"540368","296129",Fenland,C1,Urban city and town,./0.png
0.170296778352103,52.672290931913,"59","515",10286POLI00,MP,POLICE STATION AND PREMISES,"449925012",POLICE STATION,LYNN ROAD,PE13 3DZ,,"41750",215S,"215",Other,OTHER - OFFICES,Police Stations,"546842","310497",Fenland,C1,Urban city and town,./0.png
-0.708931672699511,51.6513625962529,"60","425","992714030220",MP,POLICE STATION AND PREMISES,"860926000",HAZLEMERE POLICE OFFICE 20,PENN ROAD,HP15 7LR,,"4550",215S,"215",Other,OTHER - OFFICES,Police Stations,"489417","195519",Wycombe,C1,Urban city and town,./0.png
-0.832857596069131,51.7271368432424,"61","425","987875030100",MP,POLICE STATION AND PREMISES,"572091162",POLICE STATION,LONGWICK ROAD,HP27 9HE,,"4450",215S,"215",Other,OTHER - OFFICES,Police Stations,"480709","203802",Wycombe,D1,Rural town and fringe,./2.png
-0.749729529536579,51.6274903116531,"62","425","994354030160",MP,POLICE STATION AND PREMISES,"572088162",THAMES VALLEY CONSTABULARY,QUEEN VICTORIA ROAD,HP11 1BE,,"84000",215S,"215",Other,OTHER - OFFICES,Police Stations,"486640","192815",Wycombe,C1,Urban city and town,./0.png
-0.778887745599561,51.74297115337,"63","425","981474030010",MP,POLICE STATION AND PREMISES,"1511913000",CHEQUERS,,HP17 0UZ,,"7600",215S,"215",Other,OTHER - OFFICES,Police Stations,"484407","205624",Wycombe,E1,Rural village and dispersed,./1.png
-0.727593333876174,52.0857978842455,"64","435","073327",MP,POLICE STATION AND PREMISES,"571985162",THAMES VALLEY POLICE AUTHORITY,HIGH STREET,MK16 8EH,,"20250",215S,"215",Other,OTHER - OFFICES,Police Stations,"487282","243813",Milton Keynes,C1,Urban city and town,./0.png
-0.819666919180686,52.0622010971185,"65","435","072834",MP,POLICE STATION AND PREMISES,"571986162",THAMES VALLEY POLICE AUTHORITY,STRATFORD ROAD,MK12 5LX,,"23750",215S,"215",Other,OTHER - OFFICES,Police Stations,"481016","241082",Milton Keynes,C1,Urban city and town,./0.png
-0.79618038652014,52.0047081032667,"66","435","082899",MP,POLICE STATION AND PREMISES,"571989162","8",WIMBORNE CRESCENT,MK4 4DB,,"5500",215S,"215",Other,OTHER - OFFICES,Police Stations,"482732","234714",Milton Keynes,C1,Urban city and town,./0.png
-0.76492262073551,52.0394141384508,"67","435","072609",MP,POLICE STATION AND PREMISES,"572308162",THAMES VALLEY POLICE,WITAN GATE EAST,MK9 2HP,,"437500",215S,"215",Other,OTHER - OFFICES,Police Stations,"484812","238610",Milton Keynes,C1,Urban city and town,./0.png
-0.737583905134571,51.9944292172318,"68","435","085015",MP,POLICE STATION AND PREMISES,"1445600000",THAMES VALLEY POLICE AUTHORITY,SHERWOOD DRIVE,MK3 6DS,,"54000",215S,"215",Other,OTHER - OFFICES,Police Stations,"486774","233639",Milton Keynes,C1,Urban city and town,./0.png
-1.1868642273727,54.6591544003303,"69","724","8239091224",MP,POLICE STATION AND PREMISES,"3595670000",ROCKET HOUSE,THE FRONT,TS25 1BU,,"1225",215S,"215",Other,OTHER - OFFICES,Police Stations,"452554","529644",Hartlepool,C1,Urban city and town,./0.png
-1.20511760363709,54.6865418385049,"70","724","8116090456",MP,POLICE STATION AND PREMISES,"322389102",CLEVELAND POLICE AUTH. 9,CHURCH STREET,TS24 7DJ,,"4150",215S,"215",Other,OTHER - OFFICES,Police Stations,"451342","532678",Hartlepool,C1,Urban city and town,./0.png
-1.21571756326533,54.6862693752956,"71","724","8023599913",MP,POLICE STATION AND PREMISES,"322363102",POLICE STATION,AVENUE ROAD,TS24 8BB,,"127000",215S,"215",Other,OTHER - OFFICES,Police Stations,"450659","532640",Hartlepool,C1,Urban city and town,./0.png
0.264607437990751,52.4035536060473,"72","510","901000285153",MP,POLICE STATION AND PREMISES,"392219012",POLICE STATION,LYNN ROAD,CB6 1DD,,"35750",215S,"215",Other,OTHER - OFFICES,Police Stations,"554156","280806",East Cambridgeshire,C1,Urban city and town,./0.png
-0.196123136638604,52.3303367106014,"73","520",01E6TRPOLI000S,MP,POLICE STATION AND PREMISES,"449944012",CAMBS COUNTY CONSTABULARY HQ,BRAMPTON ROAD,PE29 6NP,,"785000",215S,"215",Other,OTHER - OFFICES,Police Stations,"523019","271781",Huntingdonshire,C1,Urban city and town,./0.png
-0.188754684675833,52.3325167481644,"74","520",01E6DHPOLI000L,MP,POLICE STATION AND PREMISES,"449945012",HUNTINGDON POLICE STATION,FERRARS ROAD,PE29 3DQ,,"80500",215S,"215",Other,OTHER - OFFICES,Police Stations,"523515","272036",Huntingdonshire,C1,Urban city and town,./0.png
-0.112314334890836,52.4476139277315,"75","520",64D1ALPOLI000S,MP,PROPERTY UNDER REDEVELOPMENT,"449948012",POLICE STATION,BLENHEIM ROAD,PE26 1AL,28/11/2018 00:00:00,"0",215S,"215",Other,OTHER - OFFICES,Police Stations,"528389","284970",Huntingdonshire,D1,Rural town and fringe,./2.png
-0.262628161020148,52.2311974395857,"76","520",24F1DSSTNE000T,MP,POLICE STATION AND PREMISES,"449950012",ST NEOTS POLICE STATION,DOVEHOUSE CLOSE,PE19 1DS,,"27250",215S,"215",Other,OTHER - OFFICES,Police Stations,"518752","260644",Huntingdonshire,C1,Urban city and town,./0.png
-0.072456544973522,52.3284014595065,"77","520",49D4PUPOLI00SM,MP,POLICE STATION AND PREMISES,"9408947000",POLICE STATION,BROAD LEAS,PE27 5QB,,"15000",215S,"215",Other,OTHER - OFFICES,Police Stations,"531451","271783",Huntingdonshire,C1,Urban city and town,./0.png
0.16696084808796,52.1285868314536,"78","530","3791308000",MP,POLICE STATION AND PREMISES,"4135154000",SAWSTON POLICE STATION,CAMBRIDGE ROAD,CB22 3DG,,"53000",215S,"215",Other,OTHER - OFFICES,Police Stations,"548429","250023",South Cambridgeshire,D1,Rural town and fringe,./2.png
0.111637431225167,52.2454246046251,"79","530","3567008010",MP,POLICE STATION AND PREMISES,"819574000",POLICE STATION,MOWLAM CLOSE,CB24 9NA,,"43000",215S,"215",Other,OTHER - OFFICES,Police Stations,"544264","262905",South Cambridgeshire,C1,Urban city and town,./0.png
